#dP2024 10  5  0  0  0.00000000      97 __u+U IGS20 FIT  IAC
## 2334 518400.00000000   900.00000000 60588 0.0000000000000
+  119   C06C07C08C09C10C11C12C13C14C16C19C20C21C22C23C24C25
+        C26C27C28C29C30C32C33C34C35C36C37C38C39C40C41C42C43
+        C44C45E02E03E04E05E06E07E08E09E10E11E12E13E14E15E18
+        E19E21E24E25E26E27E29E30E31E33E34E36G02G03G04G05G06
+        G07G08G09G10G11G12G13G14G15G16G17G18G19G20G21G22G23
+        G24G25G26G27G28G29G30G31G32J02J03J04R01R02R03R04R05
+        R07R08R09R11R12R14R15R16R17R18R19R20R21R22R24R25R26
++         8  8  9  8  8  8  8  8  7  8  6  6  6  7  6  6  6
++         6  6  6  6  6  6  6  7  6  6  6  7  7  8  6  6  7
++         6  7  5  5  4  4  4  5  5  4  4  4  5  5  5  4  5
++         5  5  4  5  5  4  5  5  5  5  4  4  4  4  4  3  4
++         4  4  4  4  9  4  4  4  4  4  4  4  4  4  4  4  4
++         4  4  4  4  4  4  4  4  4 11 11 11  8  7  7  7  7
++         7  7  7  7  7  7  7  7  7  7  8  8  7  7  7  8  8
%c M  cc GPS ccc cccc cccc cccc cccc ccccc ccccc ccccc ccccc
%c cc cc ccc ccc cccc cccc cccc cccc ccccc ccccc ccccc ccccc
%f  1.2500000  1.025000000  0.00000000000  0.000000000000000
%f  0.0000000  0.000000000  0.00000000000  0.000000000000000
%i    0    0    0    0      0      0      0      0         0
%i    0    0    0    0      0      0      0      0         0
/* INFORMATION & ANALYSIS CENTER (IAC)            FINAL DATA
/* S/V CLOCKS ARE ALIGNED TO GNSS TIME                      
/* G:C1WC2W R:C1PC2P E:C1XC5X C:C2IC6I J:C1CC2S             
/* PCV:IGS20_2317 OL/AL:FES2004  NONE     YN ORB:CoN CLK:CoN
*  2024 10 05 23 30  0.00000000
PC06 -15616.039749  26987.516775 -28444.486044    293.912573
PC07  -8896.761474  40153.211003  -8584.647949   -313.943534
PC08    153.087964  24104.639548  34634.554634   -625.047446
PC09  -9345.566522  26053.680456 -31483.813923   -434.270716
PC10  -2938.222775  41674.281168  -2025.477036   -213.574706
PC11  -2370.355005 -17325.704046 -21675.452479    796.048885
PC12  14975.378553 -21819.868144  -8824.759945   -260.988543
PC13   7353.728656  28189.012189  30767.745810    430.234465
PC14  -8761.176315 -26346.911302   3073.100336   -277.770630
PC16 -21465.547628  26002.374572 -25222.750622    204.222540
PC19  13505.062732  21343.754496 -11831.339108   -944.836537
PC20   3666.140221  27280.325049   4505.904122   -938.261128
PC21   9480.848877 -17192.748429 -19837.110717   -924.514951
PC22  16273.451891   2749.283917 -22514.290134    143.221153
PC23 -27183.039679  -4138.441521  -4734.269184   -850.702129
PC24  -1067.716031 -16927.921456  22141.922489    808.481511
PC25 -20244.684574 -14531.819658  12525.509143    525.055097
PC26  18184.766739  -9404.614572  18960.993164   -358.655585
PC27 -20200.701063  19254.889364    -67.355461    378.419299
PC28 -22631.545430   7560.461902 -14456.943253    293.583916
PC29  11168.007691  11630.539400  22774.779412    344.728907
PC30  -6868.496616  22463.428526  15071.417664   -241.804203
PC32  -9444.512921  17116.816299  19913.575773   -756.941009
PC33 -13622.823289 -21351.624028  11722.845291   -961.098338
PC34   5220.073825 -22041.351475 -16300.253593    536.148103
PC35  22258.202869  -7804.620123  14879.042583    242.940496
PC36  20328.435434  14794.021913 -12106.909562    197.160027
PC37 -18430.320619   8963.377255 -18918.733344   -894.464400
PC38  -8882.706146  21161.547926  35435.651611    183.509772
PC39 -24709.502866  26773.207505 -21380.502700    -10.049133
PC40 -14609.601184  37641.391428 -11554.638926    -95.071348
PC41 -16455.457206  -3796.599151  22262.209474   -901.672875
PC42  -2508.655732 -27091.855192  -6237.061368   -488.748032
PC43 -10433.606538 -12517.816750 -22659.939808     88.023673
PC44  19466.173171 -19977.514385    188.771297    613.884859
PC45  27199.489506   4630.714879   4281.421225   -143.136821
PE02 -13499.631151 -25198.437152   7647.759913    164.693658
PE03  -2876.248763 -24542.120801  16292.282408   -144.984891
PE04  15523.670272   6793.583751 -24271.035635    -50.049706
PE05  11140.475777 -27404.372694  -1062.856424   4790.333621
PE06  18690.431038  -4181.158502 -22587.013095    -33.128056
PE07 -18778.312556  13955.555504  18123.361750   -145.787165
PE08 -15016.972206  -7648.765530  24325.547214   -346.778816
PE09  18702.009861 -13921.680233 -18251.685568   -615.288648
PE10  29194.275210  -1694.045171   4633.486394   -661.263695
PE11  27815.818974  -8247.090640  -5873.318998   1382.434685
PE12  26157.821933   4435.606342  13118.167004  -1239.552161
PE13 -28022.312924   7915.614852   5314.676987    -25.464388
PE14  16427.573907   3836.432331  19631.155008    273.735103
PE15 -25781.466839  -4802.499442 -13714.742278   -131.330677
PE18 -13924.930363 -16155.302591 -22029.462640    625.769790
PE19   1254.015424  25507.442890 -14967.951750    731.047337
PE21  -2885.589137  20108.892861 -21526.630954   -620.797995
PE24  18303.522337  -2868.978212  23078.835606  -1026.372897
PE25   3297.410690 -19829.048042  21734.565629      9.816683
PE26 -13297.443135  16006.344395  21054.190127   -249.204945
PE27 -18176.456558   3036.493747 -23156.819743   -470.366530
PE29 -10956.492710  27497.617357    635.263805    -35.449960
PE30 -22538.743395 -15613.211140 -11143.743158   -788.963806
PE31  22565.489586  15605.792026  11125.898229    -38.257415
PE33   7948.897140  14634.944139  24477.973775     15.688872
PE34  -8442.069149 -14492.937575 -24387.478428   -138.353551
PE36  13888.120337 -15758.057056 -20851.970687   -292.997521
PG02   -660.770722 -15191.216122 -21272.325684   -343.336143
PG03 -10932.936257 -22008.142451 -10383.219927    561.025498
PG04  -1235.886707 -23240.710697  12674.811709    456.465491
PG05  -2981.267230  16494.662587  20405.174952   -188.860067
PG06 -26120.889675   5076.321579   -683.647966    -17.723113
PG07 -18449.072967  -8767.035714  17741.220039    -30.423046
PG08   5769.252111 -25643.634608  -1480.384399    375.288871
PG09  -9501.567566 -15705.842590  19078.541606    386.172300
PG10  20148.361221   5930.718617 -16246.305816   -148.477343
PG11 -19239.422450  12708.402784  13157.246148   -741.484838
PG12   6277.416022  22371.224621 -13188.182606   -543.083713
PG13 -13764.087583  22077.151825   4442.842828    680.052984
PG14 -21119.850158  -9213.881944 -13360.763942    511.119934
PG15  -2048.058899  26333.205647  -2285.990587    212.347832
PG16   8852.035969 -12704.888205  21185.297103   -162.541142
PG17 -15850.529089   1211.885351 -20887.726479    605.104362
PG18  19230.068918   7623.936215  16811.809161   -656.818921
PG19 -17334.349835   9702.911273 -17566.678994    546.893352
PG20 -12832.677826   9264.671718  21381.606310    369.952996
PG21   5289.936879 -16196.111059 -19668.296503    100.369895
PG22 -18179.910792  -2059.381329 -18736.770119    -68.434602
PG23  20655.393254  16055.305698  -5206.602266    335.377003
PG24  -1010.723376  16713.022228 -20998.264025   -485.576165
PG25  16915.383850  20501.455404  -2925.511384    499.587189
PG26  17825.473927  -3295.204690  19365.037069     62.796110
PG27  12600.448994 -21384.818434   8539.217715    -34.357445
PG28  25981.032912  -4561.498551  -3140.313495   -435.900056
PG29   6460.747051  18004.578698  18332.304261   -573.268891
PG30 -24953.295184  -1437.617213   9515.143077   -308.050464
PG31  22921.754696 -10775.757428   8368.827759   -223.794532
PG32  16002.092289  -3321.925211 -20679.939765   -590.007329
PJ02 -20632.852255  22836.200827 -24206.358920     -1.194602
PJ03 -30983.666213  26931.758984  14723.903108     -4.098378
PJ04 -27041.761254  27639.370674  22576.525980     22.061681
PR01  -7935.193466  14358.658236  19524.387320    100.070127
PR02  -1324.862718  24861.753731   5762.538717    -25.016789
PR03   6826.933269  21721.047143 -11529.092525    108.867238
PR04  10605.570171   6947.048711 -22115.623807    257.951675
PR05   9049.003777 -11522.332981 -20868.055356    138.722017
PR07  -7047.659108 -21296.446075  12121.979497     92.331072
PR08 -10826.977444  -6491.905809  22211.016129     -6.419182
PR09   -731.132813 -12442.526462  22287.657277    213.052074
PR11 -23416.266344  -9741.503657  -2809.974432     10.031659
PR12 -16468.875649   2286.609623 -19314.162403     45.668975
PR14  16673.463073  14658.950822 -12529.018905     27.013659
PR15  23438.331914   8953.336814   4598.257074     75.164339
PR16  16519.892231  -2145.724299  19314.132047     29.714925
PR17   5802.503189   8920.028591  23195.105384    128.186274
PR18  18414.320390  -2381.854835  17490.306345    165.471444
PR19  22533.499529 -11038.618236   4636.020516   -293.839986
PR20  12508.420330 -15637.625876 -15769.285151   -120.024917
PR21  -4829.699598  -9429.602741 -23198.982392   -140.326633
PR22 -19297.025354   2608.441261 -16449.196165     29.021047
PR24 -11121.100633  16429.626386  16038.286309    -74.846721
PR25  -5911.939809  -9206.710737 -23032.966422    -94.710085
PR26 -10723.163847  -8230.954610  21649.625629     62.182515
EOF
